GSAT0101 (GALILEO-PFM)  
1 37846U 11060A   26189.55204449 -.00000074  00000+0  00000+0 0  9995
2 37846  56.9869 341.1826 0002415  60.6868 299.3373  1.70475585 91484
GSAT0102 (GALILEO-FM2)  
1 37847U 11060B   26189.47708995 -.00000074  00000+0  00000+0 0  9992
2 37847  56.9877 341.1851 0002423  11.7755 347.8886  1.70475862 91489
GSAT0103 (GALILEO-FM3)  
1 38857U 12055A   26190.76599401 -.00000019  00000+0  00000+0 0  9992
2 38857  55.8193 100.9259 0003945 309.3641  50.6099  1.70473301 85397
GSAT0201 (GALILEO 5)    
1 40128U 14050A   26191.05431484 -.00000022  00000+0  00000+0 0  9996
2 40128  48.8500 272.4979 1677815 180.2883 179.6634  1.85519753 78743
GSAT0202 (GALILEO 6)    
1 40129U 14050B   26191.30977287 -.00000018  00000+0  00000+0 0  9996
2 40129  48.8671 271.5730 1679021 181.0029 178.6755  1.85520571 80915
GSAT0203 (GALILEO 7)    
1 40544U 15017A   26189.91637143 -.00000076  00000+0  00000+0 0  9993
2 40544  56.7793 341.0043 0002468 258.6385 101.3331  1.70476163 69572
GSAT0204 (GALILEO 8)    
1 40545U 15017B   26188.41247189 -.00000072  00000+0  00000+0 0  9991
2 40545  56.7861 341.0638 0002551 235.3414 124.6352  1.70475727 32584
GSAT0206 (GALILEO 10)   
1 40890U 15045B   26188.98768849  .00000082  00000+0  00000+0 0  9998
2 40890  54.9404 221.0297 0001927 331.1596  28.9023  1.70473579 67391
GSAT0209 (GALILEO 12)   
1 41174U 15079A   26189.15594789 -.00000008  00000+0  00000+0 0  9990
2 41174  55.8390 100.6867 0004997 350.6288   9.3765  1.70473596 65135
GSAT0208 (GALILEO 11)   
1 41175U 15079B   26189.37634046 -.00000009  00000+0  00000+0 0  9997
2 41175  55.8379 100.6775 0004423  15.9812 344.0466  1.70473357 65557
GSAT0211 (GALILEO 14)   
1 41549U 16030A   26187.74023406  .00000078  00000+0  00000+0 0  9996
2 41549  55.0912 221.1568 0003151 320.2571  39.7906  1.70473798 63001
GSAT0210 (GALILEO 13)   
1 41550U 16030B   26190.93041336  .00000089  00000+0  00000+0 0  9997
2 41550  55.0899 221.0670 0004683 245.4873 114.5425  1.70474002 63056
GSAT0207 (GALILEO 15)   
1 41859U 16069A   26190.03578203 -.00000014  00000+0  00000+0 0  9999
2 41859  55.5102 100.4816 0004251 344.5564  15.4422  1.70473324 59777
